[{"OBJECT_NAME":"STARLINK-4564","OBJECT_ID":"2022-101AK","EPOCH":"2026-03-09T23:04:53.375232","MEAN_MOTION":15.08839988,"ECCENTRICITY":0.00015277,"INCLINATION":53.2181,"RA_OF_ASC_NODE":53.0847,"ARG_OF_PERICENTER":92.8162,"MEAN_ANOMALY":267.3005,"EPHEMERIS_TYPE":0,"CLASSIFICATION_TYPE":"U","NORAD_CAT_ID":53560,"ELEMENT_SET_NO":999,"REV_AT_EPOCH":19648,"BSTAR":4.7093745e-5,"MEAN_MOTION_DOT":4.62e-6,"MEAN_MOTION_DDOT":0},{"OBJECT_NAME":"UNKNOWN","OBJECT_ID":"","EPOCH":"2026-03-07T08:06:28.518048","MEAN_MOTION":8.04822229,"ECCENTRICITY":0.3508374,"INCLINATION":64.865,"RA_OF_ASC_NODE":180.5777,"ARG_OF_PERICENTER":8.8328,"MEAN_ANOMALY":356.0567,"EPHEMERIS_TYPE":0,"CLASSIFICATION_TYPE":"U","NORAD_CAT_ID":84188,"ELEMENT_SET_NO":999,"REV_AT_EPOCH":4791,"BSTAR":0.09928,"MEAN_MOTION_DOT":0.00195299,"MEAN_MOTION_DDOT":0}]
